[{"OBJECT_NAME":"STARLINK-34758","OBJECT_ID":"2025-158P","EPOCH":"2026-03-09T14:30:35.677440","MEAN_MOTION":15.05652349,"ECCENTRICITY":0.0002855,"INCLINATION":97.6014,"RA_OF_ASC_NODE":294.014,"ARG_OF_PERICENTER":87.6603,"MEAN_ANOMALY":272.495,"EPHEMERIS_TYPE":0,"CLASSIFICATION_TYPE":"U","NORAD_CAT_ID":64945,"ELEMENT_SET_NO":999,"REV_AT_EPOCH":3534,"BSTAR":0.00039459,"MEAN_MOTION_DOT":5.638e-5,"MEAN_MOTION_DDOT":0},{"OBJECT_NAME":"UNKNOWN","OBJECT_ID":"","EPOCH":"2026-03-09T02:53:57.432768","MEAN_MOTION":15.04852502,"ECCENTRICITY":0.0007482,"INCLINATION":86.6587,"RA_OF_ASC_NODE":118.2618,"ARG_OF_PERICENTER":183.1315,"MEAN_ANOMALY":176.9875,"EPHEMERIS_TYPE":0,"CLASSIFICATION_TYPE":"U","NORAD_CAT_ID":82402,"ELEMENT_SET_NO":999,"REV_AT_EPOCH":46745,"BSTAR":0.00051144,"MEAN_MOTION_DOT":7.26e-5,"MEAN_MOTION_DDOT":0}]
